HISPASAT 36W-1          
1 41942U 17006A   17052.19592200 -.00000202  00000-0  00000+0 0  9991
2 41942   0.0744 268.8439 0001436  43.9102 243.0797  1.00270309   408
FREGAT R/B              
1 41943U 17006B   17051.21447964  .00047440 -18277-6  19885-2 0  9990
2 41943   5.4284 333.2334 7286063 197.3485 109.9075  2.31224208   539
2017-007A               
1 41944U 17007A   17052.79124517 -.00000243  00000-0  00000+0 0  9997
2 41944   0.0288   9.6656 0029250  89.0047 112.2755  1.00764063    99
2017-007B               
1 41945U 17007B   17050.94480668 -.00000401  00000-0  00000+0 0  9991
2 41945   4.0215 295.4540 7281428 182.1875 171.2395  2.28181101   125
2017-007C               
1 41946U 17007C   17052.28277736  .00001169  00000-0  55565-3 0  9992
2 41946   3.8753 298.5222 7278826 179.6841 180.9600  2.27774766   101
2017-007D               
1 41947U 17007D   17052.68823806  .00012203  00000-0  43369-2 0  9991
2 41947   4.0067 294.7454 7275409 183.5705 164.2104  2.28291288   169
CARTOSAT-2D             
1 41948U 17008A   17052.46592037  .00000788  00000-0  42600-4 0  9992
2 41948  97.5093 114.0513 0011001 229.6788 130.3480 15.17569731   959
INS-1A                  
1 41949U 17008B   17052.91464075  .00002157  00000-0  10011-3 0  9995
2 41949  97.5087 114.5255 0008660 227.1847 132.8661 15.21106081   999
INS-1B                  
1 41950U 17008C   17052.97987973  .00004672  00000-0  21218-3 0  9995
2 41950  97.5101 114.5955 0008665 231.3307 128.7153 15.21243931  1018
2017-008D               
1 41951U 17008D   17052.97897682  .00001418  00000-0  66295-4 0  9993
2 41951  97.5103 114.5962 0007436 227.3864 132.6734 15.21426202  1009
2017-008E               
1 41952U 17008E   17052.97670091  .00001332  00000-0  61574-4 0  9997
2 41952  97.5106 114.5986 0007075 249.9026 110.1555 15.21933662  1003
2017-008F               
1 41953U 17008F   17052.97584192  .00000515  00000-0  25595-4 0  9999
2 41953  97.5113 114.5966 0007147 252.3893 107.6859 15.22124983  1007
2017-008G               
1 41954U 17008G   17052.97992042  .00002440  00000-0  11246-3 0  9993
2 41954  97.5090 114.5918 0008555 228.0496 132.0011 15.21221417   956
2017-008H               
1 41955U 17008H   17052.91394905  .00001084  00000-0  51664-4 0  9994
2 41955  97.5088 114.5277 0008355 231.3830 128.6771 15.21256711   925
2017-008J               
1 41956U 17008J   17052.91376602  .00001876  00000-0  86996-4 0  9994
2 41956  97.5105 114.5293 0008128 228.5327 131.5188 15.21300718  1003
2017-008K               
1 41957U 17008K   17052.91376139  .00001127  00000-0  53545-4 0  9993
2 41957  97.5104 114.5277 0007814 231.1443 128.9092 15.21298635   844
2017-008L               
1 41958U 17008L   17052.97946780  .00001227  00000-0  57957-4 0  9997
2 41958  97.5101 114.5942 0008137 228.1359 131.9189 15.21314441   847
2017-008M               
1 41959U 17008M   17052.84785658  .00001419  00000-0  66499-4 0  9993
2 41959  97.5093 114.4637 0008330 231.6470 128.3805 15.21328309   838
2017-008N               
1 41960U 17008N   17052.97935709  .00000978  00000-0  46805-4 0  9991
2 41960  97.5103 114.5944 0007634 232.5204 127.5391 15.21338890   933
2017-008P               
1 41961U 17008P   17052.71623878  .00000838  00000-0  40577-4 0  9990
2 41961  97.5110 114.3358 0007927 226.0160 134.0351 15.21342775   816
2017-008Q               
1 41962U 17008Q   17052.91353494  .00001050  00000-0  50000-4 0  9996
2 41962  97.5108 114.5291 0007658 230.6572 129.3788 15.21348972   794
2017-008R               
1 41963U 17008R   17052.97927591  .00002171  00000-0  10000-3 0  9998
2 41963  97.5108 114.5947 0007977 228.0176 132.0444 15.21360805   854
2017-008S               
1 41964U 17008S   17052.86967756  .00002369  00000-0  10881-3 0  9990
2 41964  97.5078 114.4842 0007938 232.7450 247.4799 15.21362981   815
2017-008T               
1 41965U 17008T   17052.97919112  .00001129  00000-0  53487-4 0  9999
2 41965  97.5134 114.5979 0007880 229.1614 130.8939 15.21376275   934
2017-008U               
1 41966U 17008U   17052.91332818  .00000686  00000-0  33718-4 0  9998
2 41966  97.5106 114.5305 0007569 229.1236 130.9306 15.21395507   849
2017-008V               
1 41967U 17008V   17052.91328553  .00000521  00000-0  26365-4 0  9998
2 41967  97.5130 114.5324 0007673 228.9203 131.1208 15.21404609   843
2017-008DJ              
1 42052U 17008DJ  17052.23458084  .00001278  00000-0  51379-4 0  9995
2 42052  97.5109 113.9754 0015050  68.8329 291.5649 15.26707208   928
DRAGON CRS-10           
1 42053U 17009A   17052.86944151  .00007183  00000-0  10000-3 0  9997
2 42053  51.6410 253.1675 0006551 218.2398 141.8273 15.58128897   361
DRAGON CRS-10 DEB       
1 42054U 17009B   17052.85190712 -.00003682  11639-4  00000+0 0  9993
2 42054  51.6544 253.0421 0078127  56.3581 305.1188 16.09866453   354
DRAGON CRS-10 DEB       
1 42055U 17009C   17052.85353100 -.00003674  11614-4  00000+0 0  9990
2 42055  51.6217 253.0987 0083826  54.9481 307.4010 16.08834636   361
